[
    {
        "Altitude(m)": 554113.7407101775,
        "Argument of Periapsis(deg)": 0.026491964442854003,
        "Eccentricity": 0.0,
        "Inclination(deg)": 53.0,
        "Latitude(deg)": 1.065933040532356,
        "Longitude(deg)": 111.01707858570542,
        "Mean Anomaly(deg)": 178.54827147031034,
        "RAAN(deg)": 34.96057347411207,
        "Satellite Name": "Starlink Shell 1 162",
        "Satellite Number": 162,
        "Semi-Major Axis(m)": 6931778.249405717,
        "Time(s)": 760
    },
    {
        "Altitude(m)": 554174.5893167752,
        "Argument of Periapsis(deg)": 0.02684054292236524,
        "Eccentricity": 0.0,
        "Inclination(deg)": 53.0,
        "Latitude(deg)": 0.5620084037687787,
        "Longitude(deg)": 111.35253463850508,
        "Mean Anomaly(deg)": 179.17510267386703,
        "RAAN(deg)": 34.9600547040346,
        "Satellite Name": "Starlink Shell 1 162",
        "Satellite Number": 162,
        "Semi-Major Axis(m)": 6931778.249405717,
        "Time(s)": 770
    },
    {
        "Altitude(m)": 554238.2421640331,
        "Argument of Periapsis(deg)": 0.027189121401876473,
        "Eccentricity": 0.0,
        "Inclination(deg)": 53.0,
        "Latitude(deg)": 0.05806779794548638,
        "Longitude(deg)": 111.68791905270258,
        "Mean Anomaly(deg)": 179.80193387742378,
        "RAAN(deg)": 34.95953593395713,
        "Satellite Name": "Starlink Shell 1 162",
        "Satellite Number": 162,
        "Semi-Major Axis(m)": 6931778.249405717,
        "Time(s)": 780
    },
    {
        "Altitude(m)": 554304.692093711,
        "Argument of Periapsis(deg)": 0.02753769988138771,
        "Eccentricity": 0.0,
        "Inclination(deg)": 53.0,
        "Latitude(deg)": -0.44586588004911715,
        "Longitude(deg)": 112.02328986415425,
        "Mean Anomaly(deg)": 180.4287650809805,
        "RAAN(deg)": 34.95901716387964,
        "Satellite Name": "Starlink Shell 1 162",
        "Satellite Number": 162,
        "Semi-Major Axis(m)": 6931778.249405717,
        "Time(s)": 790
    },
    {
        "Altitude(m)": 554373.9305924874,
        "Argument of Periapsis(deg)": 0.02788627836089895,
        "Eccentricity": 0.0,
        "Inclination(deg)": 53.0,
        "Latitude(deg)": -0.9497697384583976,
        "Longitude(deg)": 112.35870459584227,
        "Mean Anomaly(deg)": 181.05559628453722,
        "RAAN(deg)": 34.958498393802174,
        "Satellite Name": "Starlink Shell 1 162",
        "Satellite Number": 162,
        "Semi-Major Axis(m)": 6931778.249405717,
        "Time(s)": 800
    },
    {
        "Altitude(m)": 554445.9477934133,
        "Argument of Periapsis(deg)": 0.02823485684041019,
        "Eccentricity": 0.0,
        "Inclination(deg)": 53.0,
        "Latitude(deg)": -1.4536208789807743,
        "Longitude(deg)": 112.69422078738822,
        "Mean Anomaly(deg)": 181.6824274880939,
        "RAAN(deg)": 34.957979623724704,
        "Satellite Name": "Starlink Shell 1 162",
        "Satellite Number": 162,
        "Semi-Major Axis(m)": 6931778.249405717,
        "Time(s)": 810
    },
    {
        "Altitude(m)": 554520.7324780886,
        "Argument of Periapsis(deg)": 0.028583435319921423,
        "Eccentricity": 0.0,
        "Inclination(deg)": 53.0,
        "Latitude(deg)": -1.9573963850862037,
        "Longitude(deg)": 113.02989652456753,
        "Mean Anomaly(deg)": 182.30925869165063,
        "RAAN(deg)": 34.95746085364723,
        "Satellite Name": "Starlink Shell 1 162",
        "Satellite Number": 162,
        "Semi-Major Axis(m)": 6931778.249405717,
        "Time(s)": 820
    },
    {
        "Altitude(m)": 554598.2720795234,
        "Argument of Periapsis(deg)": 0.028932013799432665,
        "Eccentricity": 0.0,
        "Inclination(deg)": 53.0,
        "Latitude(deg)": -2.461073310312206,
        "Longitude(deg)": 113.36578945596024,
        "Mean Anomaly(deg)": 182.93608989520737,
        "RAAN(deg)": 34.95694208356976,
        "Satellite Name": "Starlink Shell 1 162",
        "Satellite Number": 162,
        "Semi-Major Axis(m)": 6931778.249405717,
        "Time(s)": 830
    },
    {
        "Altitude(m)": 554678.5526856332,
        "Argument of Periapsis(deg)": 0.029280592278943897,
        "Eccentricity": 0.0,
        "Inclination(deg)": 53.0,
        "Latitude(deg)": -2.964628666531118,
        "Longitude(deg)": 113.70195732249165,
        "Mean Anomaly(deg)": 183.56292109876406,
        "RAAN(deg)": 34.95642331349229,
        "Satellite Name": "Starlink Shell 1 162",
        "Satellite Number": 162,
        "Semi-Major Axis(m)": 6931778.249405717,
        "Time(s)": 840
    },
    {
        "Altitude(m)": 554761.5590434301,
        "Argument of Periapsis(deg)": 0.029629170758455132,
        "Eccentricity": 0.0,
        "Inclination(deg)": 53.0,
        "Latitude(deg)": -3.46803941217588,
        "Longitude(deg)": 114.03845848699672,
        "Mean Anomaly(deg)": 184.18975230232078,
        "RAAN(deg)": 34.95590454341481,
        "Satellite Name": "Starlink Shell 1 162",
        "Satellite Number": 162,
        "Semi-Major Axis(m)": 6931778.249405717,
        "Time(s)": 850
    },
    {
        "Altitude(m)": 554847.2745639083,
        "Argument of Periapsis(deg)": 0.02997774923796637,
        "Eccentricity": 0.0,
        "Inclination(deg)": 53.0,
        "Latitude(deg)": -3.9712824404120326,
        "Longitude(deg)": 114.3753507828459,
        "Mean Anomaly(deg)": 184.8165835058775,
        "RAAN(deg)": 34.95538577333734,
        "Satellite Name": "Starlink Shell 1 162",
        "Satellite Number": 162,
        "Semi-Major Axis(m)": 6931778.249405717,
        "Time(s)": 860
    },
    {
        "Altitude(m)": 554935.6813275525,
        "Argument of Periapsis(deg)": 0.030326327717477602,
        "Eccentricity": 0.0,
        "Inclination(deg)": 53.0,
        "Latitude(deg)": -4.474334567247611,
        "Longitude(deg)": 114.71269288406468,
        "Mean Anomaly(deg)": 185.4434147094342,
        "RAAN(deg)": 34.95486700325986,
        "Satellite Name": "Starlink Shell 1 162",
        "Satellite Number": 162,
        "Semi-Major Axis(m)": 6931778.249405717,
        "Time(s)": 870
    },
    {
        "Altitude(m)": 555026.7600905561,
        "Argument of Periapsis(deg)": 0.030674906196988847,
        "Eccentricity": 0.0,
        "Inclination(deg)": 53.0,
        "Latitude(deg)": -4.977172519565685,
        "Longitude(deg)": 115.05054315404233,
        "Mean Anomaly(deg)": 186.07024591299094,
        "RAAN(deg)": 34.954348233182394,
        "Satellite Name": "Starlink Shell 1 162",
        "Satellite Number": 162,
        "Semi-Major Axis(m)": 6931778.249405717,
        "Time(s)": 880
    },
    {
        "Altitude(m)": 555120.4902916566,
        "Argument of Periapsis(deg)": 0.031023484676500086,
        "Eccentricity": 0.0,
        "Inclination(deg)": 53.0,
        "Latitude(deg)": -5.479772923071857,
        "Longitude(deg)": 115.38896017526282,
        "Mean Anomaly(deg)": 186.69707711654766,
        "RAAN(deg)": 34.953829463104924,
        "Satellite Name": "Starlink Shell 1 162",
        "Satellite Number": 162,
        "Semi-Major Axis(m)": 6931778.249405717,
        "Time(s)": 890
    },
    {
        "Altitude(m)": 555216.8500596841,
        "Argument of Periapsis(deg)": 0.03137206315601132,
        "Eccentricity": 0.0,
        "Inclination(deg)": 53.0,
        "Latitude(deg)": -5.98211229014326,
        "Longitude(deg)": 115.72800327909275,
        "Mean Anomaly(deg)": 187.32390832010438,
        "RAAN(deg)": 34.95331069302744,
        "Satellite Name": "Starlink Shell 1 162",
        "Satellite Number": 162,
        "Semi-Major Axis(m)": 6931778.249405717,
        "Time(s)": 900
    },
    {
        "Altitude(m)": 555315.8162217136,
        "Argument of Periapsis(deg)": 0.03172064163552255,
        "Eccentricity": 0.0,
        "Inclination(deg)": 53.0,
        "Latitude(deg)": -6.484167007567139,
        "Longitude(deg)": 116.06773156275919,
        "Mean Anomaly(deg)": 187.95073952366107,
        "RAAN(deg)": 34.95279192294997,
        "Satellite Name": "Starlink Shell 1 162",
        "Satellite Number": 162,
        "Semi-Major Axis(m)": 6931778.249405717,
        "Time(s)": 910
    },
    {
        "Altitude(m)": 555417.3643119003,
        "Argument of Periapsis(deg)": 0.0320692201150338,
        "Eccentricity": 0.0,
        "Inclination(deg)": 53.0,
        "Latitude(deg)": -6.98591332415946,
        "Longitude(deg)": 116.40820441926884,
        "Mean Anomaly(deg)": 188.5775707272178,
        "RAAN(deg)": 34.9522731528725,
        "Satellite Name": "Starlink Shell 1 162",
        "Satellite Number": 162,
        "Semi-Major Axis(m)": 6931778.249405717,
        "Time(s)": 920
    },
    {
        "Altitude(m)": 555521.4685809481,
        "Argument of Periapsis(deg)": 0.032417798594545036,
        "Eccentricity": 0.0,
        "Inclination(deg)": 53.0,
        "Latitude(deg)": -7.4873273382507515,
        "Longitude(deg)": 116.74948206739944,
        "Mean Anomaly(deg)": 189.20440193077448,
        "RAAN(deg)": 34.95175438279502,
        "Satellite Name": "Starlink Shell 1 162",
        "Satellite Number": 162,
        "Semi-Major Axis(m)": 6931778.249405717,
        "Time(s)": 930
    },
    {
        "Altitude(m)": 555628.1020062186,
        "Argument of Periapsis(deg)": 0.03276637707405627,
        "Eccentricity": 0.0,
        "Inclination(deg)": 53.0,
        "Latitude(deg)": -7.9883849850267845,
        "Longitude(deg)": 117.09162456889447,
        "Mean Anomaly(deg)": 189.83123313433123,
        "RAAN(deg)": 34.951235612717554,
        "Satellite Name": "Starlink Shell 1 162",
        "Satellite Number": 162,
        "Semi-Major Axis(m)": 6931778.249405717,
        "Time(s)": 940
    }
]